STARLINK-30833          
1 58152U 23166C   26068.67965591  .00000471  00000+0  28028-4 0  9994
2 58152  53.1607 219.9375 0001325  77.1905 282.9244 15.30188000133173
NUSAT-48 (HENRIETTA LE*)
1 60498U 24149AG  26068.80506098  .00012988  00000+0  45212-3 0  9999
2 60498  97.3923 150.8264 0002754 263.3026  96.7901 15.29812597 86946
